{"type": "FeatureCollection", "features": [ {"type": "Feature", "properties": {"norad_id": 66478, "name": "STARLINK-35283", "group": "last-30-days", "lat": 41.13357462206544, "lon": -123.22472466831512, "alt_km": 380.443263435277, "timestamp": "2025-12-03T06:58:42.032261+00:00", "meta": {"OBJECT_NAME": "STARLINK-35283", "OBJECT_ID": "2025-262Y", "EPOCH": "2025-12-02T20:00:03.000384", "MEAN_MOTION": 15.62732392, "ECCENTRICITY": 0.0001645, "INCLINATION": 42.9999, "RA_OF_ASC_NODE": 129.0948, "ARG_OF_PERICENTER": 282.0456, "MEAN_ANOMALY": 128.5162, "EPHEMERIS_TYPE": 0, "CLASSIFICATION_TYPE": "U", "NORAD_CAT_ID": 66478, "ELEMENT_SET_NO": 999, "REV_AT_EPOCH": 404, "BSTAR": -0.025275, "MEAN_MOTION_DOT": -0.0204488, "MEAN_MOTION_DDOT": 0}, "tle": {"line1": "1 66478U 25262Y   25336.83336806 -.02044880  00000+0 -25275-1 0  9993", "line2": "2 66478  42.9999 129.0948 0001645 282.0456 128.5162 15.62732392  4044"}}, "geometry": {"type": "Point", "coordinates": [-123.22472466831512, 41.13357462206544]}}, {"type": "Feature", "properties": {"norad_id": 66479, "name": "STARLINK-35581", "group": "last-30-days", "lat": 41.937160889868416, "lon": -128.22695945171705, "alt_km": 380.3418387853262, "timestamp": "2025-12-03T06:58:42.032272+00:00", "meta": {"OBJECT_NAME": "STARLINK-35581", "OBJECT_ID": "2025-262Z", "EPOCH": "2025-12-02T20:00:03.000384", "MEAN_MOTION": 15.62746464, "ECCENTRICITY": 0.0001671, "INCLINATION": 42.9997, "RA_OF_ASC_NODE": 129.1043, "ARG_OF_PERICENTER": 287.28, "MEAN_ANOMALY": 119.4445, "EPHEMERIS_TYPE": 0, "CLASSIFICATION_TYPE": "U", "NORAD_CAT_ID": 66479, "ELEMENT_SET_NO": 999, "REV_AT_EPOCH": 404, "BSTAR": -0.025577, "MEAN_MOTION_DOT": -0.02067209, "MEAN_MOTION_DDOT": 0}, "tle": {"line1": "1 66479U 25262Z   25336.83336806 -.02067209  00000+0 -25577-1 0  9999", "line2": "2 66479  42.9997 129.1043 0001671 287.2800 119.4445 15.62746464  4047"}}, "geometry": {"type": "Point", "coordinates": [-128.22695945171705, 41.937160889868416]}}, {"type": "Feature", "properties": {"norad_id": 66480, "name": "STARLINK-35670", "group": "last-30-days", "lat": 40.65102353073807, "lon": -120.77132719727324, "alt_km": 380.5448085885273, "timestamp": "2025-12-03T06:58:42.032283+00:00", "meta": {"OBJECT_NAME": "STARLINK-35670", "OBJECT_ID": "2025-262AA", "EPOCH": "2025-12-02T20:00:03.000384", "MEAN_MOTION": 15.62735046, "ECCENTRICITY": 0.0001653, "INCLINATION": 42.9999, "RA_OF_ASC_NODE": 129.0896, "ARG_OF_PERICENTER": 284.0778, "MEAN_ANOMALY": 128.4051, "EPHEMERIS_TYPE": 0, "CLASSIFICATION_TYPE": "U", "NORAD_CAT_ID": 66480, "ELEMENT_SET_NO": 999, "REV_AT_EPOCH": 404, "BSTAR": -0.025396, "MEAN_MOTION_DOT": -0.02053647, "MEAN_MOTION_DDOT": 0}, "tle": {"line1": "1 66480U 25262AA  25336.83336806 -.02053647  00000+0 -25396-1 0  9991", "line2": "2 66480  42.9999 129.0896 0001653 284.0778 128.4051 15.62735046  4042"}}, "geometry": {"type": "Point", "coordinates": [-120.77132719727324, 40.65102353073807]}}, {"type": "Feature", "properties": {"norad_id": 66481, "name": "STARLINK-35698", "group": "last-30-days", "lat": 40.1173287169286, "lon": -118.35586794115018, "alt_km": 380.57458234901605, "timestamp": "2025-12-03T06:58:42.032292+00:00", "meta": {"OBJECT_NAME": "STARLINK-35698", "OBJECT_ID": "2025-262AB", "EPOCH": "2025-12-02T20:00:03.000384", "MEAN_MOTION": 15.62737501, "ECCENTRICITY": 0.0001586, "INCLINATION": 42.9999, "RA_OF_ASC_NODE": 129.0846, "ARG_OF_PERICENTER": 285.326, "MEAN_ANOMALY": 129.0698, "EPHEMERIS_TYPE": 0, "CLASSIFICATION_TYPE": "U", "NORAD_CAT_ID": 66481, "ELEMENT_SET_NO": 999, "REV_AT_EPOCH": 404, "BSTAR": -0.025394, "MEAN_MOTION_DOT": -0.02053636, "MEAN_MOTION_DDOT": 0}, "tle": {"line1": "1 66481U 25262AB  25336.83336806 -.02053636  00000+0 -25394-1 0  9998", "line2": "2 66481  42.9999 129.0846 0001586 285.3260 129.0698 15.62737501  4045"}}, "geometry": {"type": "Point", "coordinates": [-118.35586794115018, 40.1173287169286]}}, {"type": "Feature", "properties": {"norad_id": 66482, "name": "STARLINK-35648", "group": "last-30-days", "lat": 39.533876217860985, "lon": -115.97938838975126, "alt_km": 380.6484739508642, "timestamp": "2025-12-03T06:58:42.032302+00:00", "meta": {"OBJECT_NAME": "STARLINK-35648", "OBJECT_ID": "2025-262AC", "EPOCH": "2025-12-02T20:00:03.000384", "MEAN_MOTION": 15.62736044, "ECCENTRICITY": 0.0001561, "INCLINATION": 42.9997, "RA_OF_ASC_NODE": 129.0801, "ARG_OF_PERICENTER": 286.4835, "MEAN_ANOMALY": 129.8304, "EPHEMERIS_TYPE": 0, "CLASSIFICATION_TYPE": "U", "NORAD_CAT_ID": 66482, "ELEMENT_SET_NO": 999, "REV_AT_EPOCH": 388, "BSTAR": -0.025376, "MEAN_MOTION_DOT": -0.0205224, "MEAN_MOTION_DDOT": 0}, "tle": {"line1": "1 66482U 25262AC  25336.83336806 -.02052240  00000+0 -25376-1 0  9999", "line2": "2 66482  42.9997 129.0801 0001561 286.4835 129.8304 15.62736044  3882"}}, "geometry": {"type": "Point", "coordinates": [-115.97938838975126, 39.533876217860985]}}, {"type": "Feature", "properties": {"norad_id": 66483, "name": "STARLINK-35654", "group": "last-30-days", "lat": 38.90275904594887, "lon": -113.64540691573107, "alt_km": 380.7547769704024, "timestamp": "2025-12-03T06:58:42.032314+00:00", "meta": {"OBJECT_NAME": "STARLINK-35654", "OBJECT_ID": "2025-262AD", "EPOCH": "2025-12-02T20:00:03.000384", "MEAN_MOTION": 15.62749654, "ECCENTRICITY": 0.000153, "INCLINATION": 42.9996, "RA_OF_ASC_NODE": 129.0743, "ARG_OF_PERICENTER": 285.7898, "MEAN_ANOMALY": 132.4389, "EPHEMERIS_TYPE": 0, "CLASSIFICATION_TYPE": "U", "NORAD_CAT_ID": 66483, "ELEMENT_SET_NO": 999, "REV_AT_EPOCH": 404, "BSTAR": -0.025656, "MEAN_MOTION_DOT": -0.02072936, "MEAN_MOTION_DDOT": 0}, "tle": {"line1": "1 66483U 25262AD  25336.83336806 -.02072936  00000+0 -25656-1 0  9995", "line2": "2 66483  42.9996 129.0743 0001530 285.7898 132.4389 15.62749654  4047"}}, "geometry": {"type": "Point", "coordinates": [-113.64540691573107, 38.90275904594887]}}, {"type": "Feature", "properties": {"norad_id": 66484, "name": "STARLINK-35371", "group": "last-30-days", "lat": 38.22652359761284, "lon": -111.35376176063689, "alt_km": 380.8509041885318, "timestamp": "2025-12-03T06:58:42.032335+00:00", "meta": {"OBJECT_NAME": "STARLINK-35371", "OBJECT_ID": "2025-262AE", "EPOCH": "2025-12-02T20:00:03.000384", "MEAN_MOTION": 15.62730921, "ECCENTRICITY": 0.0001581, "INCLINATION": 42.9997, "RA_OF_ASC_NODE": 129.0706, "ARG_OF_PERICENTER": 285.3789, "MEAN_ANOMALY": 134.7696, "EPHEMERIS_TYPE": 0, "CLASSIFICATION_TYPE": "U", "NORAD_CAT_ID": 66484, "ELEMENT_SET_NO": 999, "REV_AT_EPOCH": 404, "BSTAR": -0.025258, "MEAN_MOTION_DOT": -0.02043569, "MEAN_MOTION_DDOT": 0}, "tle": {"line1": "1 66484U 25262AE  25336.83336806 -.02043569  00000+0 -25258-1 0  9994", "line2": "2 66484  42.9997 129.0706 0001581 285.3789 134.7696 15.62730921  4042"}}, "geometry": {"type": "Point", "coordinates": [-111.35376176063689, 38.22652359761284]}}, {"type": "Feature", "properties": {"norad_id": 66485, "name": "STARLINK-34774", "group": "last-30-days", "lat": -12.495538821486466, "lon": 14.671025545586438, "alt_km": 353.66031136600213, "timestamp": "2025-12-03T06:58:42.032347+00:00", "meta": {"OBJECT_NAME": "STARLINK-34774", "OBJECT_ID": "2025-263A", "EPOCH": "2025-12-02T20:00:03.000384", "MEAN_MOTION": 15.74220028, "ECCENTRICITY": 0.0001511, "INCLINATION": 42.9986, "RA_OF_ASC_NODE": 183.6803, "ARG_OF_PERICENTER": 285.3123, "MEAN_ANOMALY": 199.4579, "EPHEMERIS_TYPE": 0, "CLASSIFICATION_TYPE": "U", "NORAD_CAT_ID": 66485, "ELEMENT_SET_NO": 999, "REV_AT_EPOCH": 404, "BSTAR": -0.015185, "MEAN_MOTION_DOT": -0.01989752, "MEAN_MOTION_DDOT": 0}, "tle": {"line1": "1 66485U 25263A   25336.83336806 -.01989752  00000+0 -15185-1 0  9996", "line2": "2 66485  42.9986 183.6803 0001511 285.3123 199.4579 15.74220028  4043"}}, "geometry": {"type": "Point", "coordinates": [14.671025545586438, -12.495538821486466]}}, {"type": "Feature", "properties": {"norad_id": 66486, "name": "STARLINK-34844", "group": "last-30-days", "lat": -13.763747663163848, "lon": 16.147699576206726, "alt_km": 353.27311959013514, "timestamp": "2025-12-03T06:58:42.032360+00:00", "meta": {"OBJECT_NAME": "STARLINK-34844", "OBJECT_ID": "2025-263B", "EPOCH": "2025-12-02T20:00:03.000384", "MEAN_MOTION": 15.7421578, "ECCENTRICITY": 0.000132, "INCLINATION": 42.9985, "RA_OF_ASC_NODE": 183.6745, "ARG_OF_PERICENTER": 266.3321, "MEAN_ANOMALY": 220.3572, "EPHEMERIS_TYPE": 0, "CLASSIFICATION_TYPE": "U", "NORAD_CAT_ID": 66486, "ELEMENT_SET_NO": 999, "REV_AT_EPOCH": 399, "BSTAR": -0.015128, "MEAN_MOTION_DOT": -0.01982718, "MEAN_MOTION_DDOT": 0}, "tle": {"line1": "1 66486U 25263B   25336.83336806 -.01982718  00000+0 -15128-1 0  9999", "line2": "2 66486  42.9985 183.6745 0001320 266.3321 220.3572 15.74215780  3994"}}, "geometry": {"type": "Point", "coordinates": [16.147699576206726, -13.763747663163848]}}, {"type": "Feature", "properties": {"norad_id": 66487, "name": "STARLINK-34733", "group": "last-30-days", "lat": -15.034292808597442, "lon": 17.65388353650249, "alt_km": 353.5929456725453, "timestamp": "2025-12-03T06:58:42.032372+00:00", "meta": {"OBJECT_NAME": "STARLINK-34733", "OBJECT_ID": "2025-263C", "EPOCH": "2025-12-02T16:00:03.000096", "MEAN_MOTION": 15.74920982, "ECCENTRICITY": 0.00013354, "INCLINATION": 42.9988, "RA_OF_ASC_NODE": 184.6793, "ARG_OF_PERICENTER": 270.3137, "MEAN_ANOMALY": 352.4112, "EPHEMERIS_TYPE": 0, "CLASSIFICATION_TYPE": "U", "NORAD_CAT_ID": 66487, "ELEMENT_SET_NO": 999, "REV_AT_EPOCH": 401, "BSTAR": -0.014571911, "MEAN_MOTION_DOT": -0.01931434, "MEAN_MOTION_DDOT": 0}, "tle": {"line1": "1 66487U 25263C   25336.66670139 -.01931434  00000+0 -14572-1 0  9992", "line2": "2 66487  42.9988 184.6793 0001335 270.3137 352.4112 15.74920982  4016"}}, "geometry": {"type": "Point", "coordinates": [17.65388353650249, -15.034292808597442]}}]}